QIANFAN-60              
1 62790U 25016F   25196.52272669  .00000148  00000+0  20975-3 0  9998
2 62790  88.9842 118.5929 0017607  60.6695 299.6212 13.50963659 26942
QIANFAN-61              
1 62791U 25016G   25196.53516143  .00000132  00000+0  18522-3 0  9996
2 62791  88.9910 118.6471 0017026  59.6426 300.6406 13.50953316 26966
QIANFAN-62              
1 62792U 25016H   25196.53909754  .00000132  00000+0  18506-3 0  9993
2 62792  88.9856 118.5965 0018430  59.7135 300.5837 13.50958372 26954
QIANFAN-63              
1 62793U 25016J   25196.55145914  .00000147  00000+0  20810-3 0  9993
2 62793  88.9862 118.5338 0018268  63.6799 296.6226 13.50958222 26990
QIANFAN-64              
1 62794U 25016K   25196.54323359  .00000135  00000+0  18955-3 0  9998
2 62794  88.9849 118.5349 0016054  58.5143 301.7574 13.50957958 26983
QIANFAN-65              
1 62795U 25016L   25196.52689886  .00000141  00000+0  20027-3 0  9997
2 62795  88.9846 118.5650 0016258  60.0937 300.1826 13.50955791 26965
QIANFAN-66              
1 62796U 25016M   25196.55557961  .00000147  00000+0  20815-3 0  9990
2 62796  88.9865 118.5028 0017323  55.9873 304.2920 13.50958057 27017
QIANFAN-67              
1 62797U 25016N   25196.55985620  .00000146  00000+0  20706-3 0  9996
2 62797  88.9855 118.5427 0017381  61.9624 298.3283 13.50959574 26980
QIANFAN-68              
1 62798U 25016P   25196.56387439  .00000138  00000+0  19462-3 0  9990
2 62798  88.9859 118.5851 0017993  60.3743 299.9198 13.50956976 26963
QIANFAN-69              
1 62799U 25016Q   25196.49386337  .00000133  00000+0  18688-3 0  9993
2 62799  88.9838 118.4910 0018171  61.4734 298.8243 13.50957896 26991
QIANFAN-70              
1 62800U 25016R   25196.58446246  .00000149  00000+0  21132-3 0  9997
2 62800  88.9859 118.5882 0017629  52.8940 307.3819 13.50956388 26963
QIANFAN-71              
1 62801U 25016S   25196.58042543  .00000142  00000+0  20092-3 0  9997
2 62801  88.9853 118.5773 0018114  64.3163 295.9856 13.50956290 26967
QIANFAN-72              
1 62802U 25016T   25196.57617337  .00000140  00000+0  19802-3 0  9991
2 62802  88.9842 118.6011 0021560  69.8392 290.5076 13.50957886 26951
QIANFAN-73              
1 63159U 25046A   25196.54971927  .00000095  00000+0  12924-3 0  9992
2 63159  88.9844 335.4908 0014728 190.5802 169.5041 13.50954722 27133
QIANFAN-74              
1 63160U 25046B   25196.45924731  .00000101  00000+0  13742-3 0  9992
2 63160  88.9841 335.3890 0002134 138.8362 221.2951 13.50980337 27187
QIANFAN-75              
1 63161U 25046C   25196.52098785  .00000095  00000+0  12800-3 0  9998
2 63161  88.9845 335.6139 0015778 194.1585 165.9126 13.50955530 27063
QIANFAN-76              
1 63162U 25046D   25196.59072888 -.00000023  00000+0 -54074-4 0  9995
2 63162  88.9840 335.5881 0013362 193.8273 166.2514 13.50958537 27086
QIANFAN-77              
1 63163U 25046E   25196.52611762  .00000254  00000+0  17543-3 0  9992
2 63163  88.9843 334.8321 0014810 181.0149 179.1001 13.95994830 27495
QIANFAN-78              
1 63164U 25046F   25196.63204144  .00000129  00000+0  18142-3 0  9994
2 63164  88.9844 335.4494 0014633 196.3888 163.6792 13.50954305 27160
QIANFAN-79              
1 63165U 25046G   25196.58672363  .00000116  00000+0  16104-3 0  9993
2 63165  88.9848 335.5556 0014372 194.6327 165.4410 13.50956313 27106
QIANFAN-80              
1 63166U 25046H   25196.52923879  .00000056  00000+0  67485-4 0  9991
2 63166  88.9845 335.2726 0013217 198.6507 161.4162 13.50957055 27251
QIANFAN-81              
1 63167U 25046J   25196.58267822  .00000088  00000+0  11719-3 0  9990
2 63167  88.9845 335.3356 0014614 187.2570 172.8372 13.50956196 27218
QIANFAN-82              
1 63168U 25046K   25196.54140396  .00000105  00000+0  14355-3 0  9992
2 63168  88.9845 335.3833 0012494 194.2903 165.7896 13.50957488 27195
QIANFAN-83              
1 63169U 25046L   25196.53004320  .00000132  00000+0  15502-3 0  9993
2 63169  88.9845 335.4547 0013950 188.2792 171.8137 13.61925315 27154
QIANFAN-84              
1 63170U 25046M   25196.64435065  .00000126  00000+0  17689-3 0  9992
2 63170  88.9845 335.5059 0015572 192.0046 168.0736 13.50957430 27134
QIANFAN-85              
1 63171U 25046N   25196.64023591  .00000104  00000+0  14229-3 0  9993
2 63171  88.9845 335.3786 0012881 193.1214 166.9604 13.50953963 27205
QIANFAN-86              
1 63172U 25046P   25196.57440541  .00000104  00000+0  14273-3 0  9993
2 63172  88.9847 335.2440 0010641 196.0776 164.0039 13.50954122 27277
QIANFAN-87              
1 63173U 25046Q   25196.61955560  .00000108  00000+0  14898-3 0  9998
2 63173  88.9843 335.3567 0011518 191.2108 168.8789 13.50958900 27211
QIANFAN-88              
1 63174U 25046R   25196.63621440  .00000108  00000+0  14915-3 0  9998
2 63174  88.9846 335.3059 0011617 199.8431 160.2270 13.50954338 27249
QIANFAN-89              
1 63175U 25046S   25196.52505509  .00000105  00000+0  14443-3 0  9997
2 63175  88.9845 335.5064 0016206 193.0706 167.0027 13.50958998 27125
QIANFAN-90              
1 63176U 25046T   25196.62789528  .00000127  00000+0  17885-3 0  9991
2 63176  88.9846 335.4679 0013248 189.3568 170.7339 13.50957132 27154
